{
  "type": "FeatureCollection",
  "features": [
    {
      "type": "Feature",
      "properties": {
        "norad_id": 39160,
        "name": "VNREDSAT 1",
        "group": "resource",
        "lat": 33.649944926526075,
        "lon": 28.403867190612164,
        "alt_km": 674.6404203587372,
        "timestamp": "2025-12-04T03:47:54.210714+00:00",
        "meta_object_name": "VNREDSAT 1",
        "meta_object_id": "2013-021B",
        "meta_epoch": "2025-12-03T11:15:01.480032",
        "meta_mean_motion": 14.64899758,
        "meta_eccentricity": 0.0001365,
        "meta_inclination": 97.9387,
        "meta_ra_of_asc_node": 33.0682,
        "meta_arg_of_pericenter": 83.915,
        "meta_mean_anomaly": 276.2209,
        "meta_ephemeris_type": 0,
        "meta_classification_type": "U",
        "meta_norad_cat_id": 39160,
        "meta_element_set_no": 999,
        "meta_rev_at_epoch": 67163,
        "meta_bstar": 0.00021429,
        "meta_mean_motion_dot": 1.1e-05,
        "meta_mean_motion_ddot": 0,
        "tle_line1": "1 39160U 13021B   25337.46876713  .00001100  00000+0  21429-3 0  9990",
        "tle_line2": "2 39160  97.9387  33.0682 0001365  83.9150 276.2209 14.64899758671639"
      },
      "geometry": {
        "type": "Point",
        "coordinates": [
          28.403867190612164,
          33.649944926526075
        ]
      }
    },
    {
      "type": "Feature",
      "properties": {
        "norad_id": 39227,
        "name": "ARIRANG-5 (KOMPSAT-5)",
        "group": "resource",
        "lat": -28.610176565869434,
        "lon": 166.76967200625782,
        "alt_km": 559.8668683863289,
        "timestamp": "2025-12-04T03:47:54.210724+00:00",
        "meta_object_name": "ARIRANG-5 (KOMPSAT-5)",
        "meta_object_id": "2013-042A",
        "meta_epoch": "2025-12-03T11:57:51.957792",
        "meta_mean_motion": 15.04502974,
        "meta_eccentricity": 0.0004274,
        "meta_inclination": 97.6156,
        "meta_ra_of_asc_node": 161.9344,
        "meta_arg_of_pericenter": 81.698,
        "meta_mean_anomaly": 278.473,
        "meta_ephemeris_type": 0,
        "meta_classification_type": "U",
        "meta_norad_cat_id": 39227,
        "meta_element_set_no": 999,
        "meta_rev_at_epoch": 67443,
        "meta_bstar": 0.00018195,
        "meta_mean_motion_dot": 2.487e-05,
        "meta_mean_motion_ddot": 0,
        "tle_line1": "1 39227U 13042A   25337.49851803  .00002487  00000+0  18195-3 0  9998",
        "tle_line2": "2 39227  97.6156 161.9344 0004274  81.6980 278.4730 15.04502974674438"
      },
      "geometry": {
        "type": "Point",
        "coordinates": [
          166.76967200625782,
          -28.610176565869434
        ]
      }
    },
    {
      "type": "Feature",
      "properties": {
        "norad_id": 39418,
        "name": "SKYSAT-A",
        "group": "resource",
        "lat": 52.32559443340801,
        "lon": -141.6649499297727,
        "alt_km": 537.8516702872603,
        "timestamp": "2025-12-04T03:47:54.210735+00:00",
        "meta_object_name": "SKYSAT-A",
        "meta_object_id": "2013-066C",
        "meta_epoch": "2025-12-03T03:24:15.349248",
        "meta_mean_motion": 15.11489448,
        "meta_eccentricity": 0.00204425,
        "meta_inclination": 97.4128,
        "meta_ra_of_asc_node": 27.6425,
        "meta_arg_of_pericenter": 272.095,
        "meta_mean_anomaly": 87.794,
        "meta_ephemeris_type": 0,
        "meta_classification_type": "U",
        "meta_norad_cat_id": 39418,
        "meta_element_set_no": 999,
        "meta_rev_at_epoch": 65885,
        "meta_bstar": 0.00030269913,
        "meta_mean_motion_dot": 5.085e-05,
        "meta_mean_motion_ddot": 0,
        "tle_line1": "1 39418U 13066C   25337.14184432  .00005085  00000+0  30270-3 0  9990",
        "tle_line2": "2 39418  97.4128  27.6425 0020442 272.0950  87.7940 15.11489448658853"
      },
      "geometry": {
        "type": "Point",
        "coordinates": [
          -141.6649499297727,
          52.32559443340801
        ]
      }
    },
    {
      "type": "Feature",
      "properties": {
        "norad_id": 39419,
        "name": "DUBAISAT-2",
        "group": "resource",
        "lat": 9.627657657271527,
        "lon": -32.43903096184864,
        "alt_km": 535.7588499077883,
        "timestamp": "2025-12-04T03:47:54.210744+00:00",
        "meta_object_name": "DUBAISAT-2",
        "meta_object_id": "2013-066D",
        "meta_epoch": "2025-12-03T13:25:29.912736",
        "meta_mean_motion": 15.08212932,
        "meta_eccentricity": 0.0011466,
        "meta_inclination": 97.444,
        "meta_ra_of_asc_node": 328.2516,
        "meta_arg_of_pericenter": 355.4169,
        "meta_mean_anomaly": 4.6952,
        "meta_ephemeris_type": 0,
        "meta_classification_type": "U",
        "meta_norad_cat_id": 39419,
        "meta_element_set_no": 999,
        "meta_rev_at_epoch": 65688,
        "meta_bstar": 0.00042365,
        "meta_mean_motion_dot": 6.505e-05,
        "meta_mean_motion_ddot": 0,
        "tle_line1": "1 39419U 13066D   25337.55937399  .00006505  00000+0  42365-3 0  9990",
        "tle_line2": "2 39419  97.4440 328.2516 0011466 355.4169   4.6952 15.08212932656886"
      },
      "geometry": {
        "type": "Point",
        "coordinates": [
          -32.43903096184864,
          9.627657657271527
        ]
      }
    },
    {
      "type": "Feature",
      "properties": {
        "norad_id": 39574,
        "name": "GPM-CORE",
        "group": "resource",
        "lat": 52.7690640070249,
        "lon": -80.62237053807193,
        "alt_km": 431.27928324793174,
        "timestamp": "2025-12-04T03:47:54.210754+00:00",
        "meta_object_name": "GPM-CORE",
        "meta_object_id": "2014-009C",
        "meta_epoch": "2025-12-03T07:20:23.006112",
        "meta_mean_motion": 15.45167531,
        "meta_eccentricity": 0.0010567,
        "meta_inclination": 64.9754,
        "meta_ra_of_asc_node": 244.2978,
        "meta_arg_of_pericenter": 268.6884,
        "meta_mean_anomaly": 91.3046,
        "meta_ephemeris_type": 0,
        "meta_classification_type": "U",
        "meta_norad_cat_id": 39574,
        "meta_element_set_no": 999,
        "meta_rev_at_epoch": 66755,
        "meta_bstar": 0.00041245,
        "meta_mean_motion_dot": 0.00019509,
        "meta_mean_motion_ddot": 0,
        "tle_line1": "1 39574U 14009C   25337.30582183  .00019509  00000+0  41245-3 0  9994",
        "tle_line2": "2 39574  64.9754 244.2978 0010567 268.6884  91.3046 15.45167531667552"
      },
      "geometry": {
        "type": "Point",
        "coordinates": [
          -80.62237053807193,
          52.7690640070249
        ]
      }
    },
    {
      "type": "Feature",
      "properties": {
        "norad_id": 39634,
        "name": "SENTINEL-1A",
        "group": "resource",
        "lat": 69.50107772028545,
        "lon": -39.10272360825764,
        "alt_km": 688.1483644956252,
        "timestamp": "2025-12-04T03:47:54.210765+00:00",
        "meta_object_name": "SENTINEL-1A",
        "meta_object_id": "2014-016A",
        "meta_epoch": "2025-12-03T12:39:43.960032",
        "meta_mean_motion": 14.59201491,
        "meta_eccentricity": 0.0001251,
        "meta_inclination": 98.1805,
        "meta_ra_of_asc_node": 342.9051,
        "meta_arg_of_pericenter": 88.4546,
        "meta_mean_anomaly": 271.6797,
        "meta_ephemeris_type": 0,
        "meta_classification_type": "U",
        "meta_norad_cat_id": 39634,
        "meta_element_set_no": 999,
        "meta_rev_at_epoch": 62148,
        "meta_bstar": 7.0874e-05,
        "meta_mean_motion_dot": 2.88e-06,
        "meta_mean_motion_ddot": 0,
        "tle_line1": "1 39634U 14016A   25337.52759213  .00000288  00000+0  70874-4 0  9998",
        "tle_line2": "2 39634  98.1805 342.9051 0001251  88.4546 271.6797 14.59201491621482"
      },
      "geometry": {
        "type": "Point",
        "coordinates": [
          -39.10272360825764,
          69.50107772028545
        ]
      }
    },
    {
      "type": "Feature",
      "properties": {
        "norad_id": 39731,
        "name": "KAZEOSAT 1",
        "group": "resource",
        "lat": -34.103137838548214,
        "lon": -135.44582988973977,
        "alt_km": 758.2500883917992,
        "timestamp": "2025-12-04T03:47:54.210775+00:00",
        "meta_object_name": "KAZEOSAT 1",
        "meta_object_id": "2014-024A",
        "meta_epoch": "2025-12-03T11:49:11.542944",
        "meta_mean_motion": 14.42053738,
        "meta_eccentricity": 0.0001061,
        "meta_inclination": 98.3444,
        "meta_ra_of_asc_node": 49.607,
        "meta_arg_of_pericenter": 99.0023,
        "meta_mean_anomaly": 261.1287,
        "meta_ephemeris_type": 0,
        "meta_classification_type": "U",
        "meta_norad_cat_id": 39731,
        "meta_element_set_no": 999,
        "meta_rev_at_epoch": 61035,
        "meta_bstar": 0.00013428,
        "meta_mean_motion_dot": 3.98e-06,
        "meta_mean_motion_ddot": 0,
        "tle_line1": "1 39731U 14024A   25337.49249471  .00000398  00000+0  13428-3 0  9994",
        "tle_line2": "2 39731  98.3444  49.6070 0001061  99.0023 261.1287 14.42053738610353"
      },
      "geometry": {
        "type": "Point",
        "coordinates": [
          -135.44582988973977,
          -34.103137838548214
        ]
      }
    }
  ]
}